ORBCOMM FM103           
1 40091U 14040F   25297.81628583  .00000984  00000+0  24666-3 0  9996
2 40091  47.0037 125.5212 0001655 170.6403 189.4514 14.58403355583021
ORBCOMM FM114           
1 41179U 15081A   25297.69726926  .00001106  00000+0  27245-3 0  9999
2 41179  47.0043  35.0620 0002802 231.7725 128.2909 14.58442982523375
ORBCOMM FM119           
1 41180U 15081B   25297.75961471  .00000987  00000+0  24737-3 0  9993
2 41180  47.0007 304.1165 0002047 280.8108  79.2547 14.58380122524632
ORBCOMM FM105           
1 41181U 15081C   25297.77429638  .00000399  00000+0  15702-3 0  9999
2 41181  47.0023 321.6278 0002002 211.0199 149.0563 14.45340800519494
ORBCOMM FM110           
1 41182U 15081D   25297.68877270  .00001384  00000+0  33160-3 0  9992
2 41182  47.0033  34.6277 0001432  77.5796 282.5250 14.58479637523249
ORBCOMM FM118           
1 41183U 15081E   25297.72188044  .00001232  00000+0  29940-3 0  9995
2 41183  47.0052  34.7440 0002167  12.4293 347.6646 14.58437592523358
ORBCOMM FM112           
1 41184U 15081F   25297.38392822  .00001305  00000+0  31464-3 0  9994
2 41184  46.9995 304.9226 0002090 243.2203 116.8469 14.58502876524524
ORBCOMM FM113           
1 41185U 15081G   25297.70351686  .00001060  00000+0  26231-3 0  9998
2 41185  47.0011 303.7586 0002031 256.6218 103.4441 14.58498994524551
